{"type": "FeatureCollection", "features": [ {"type": "Feature", "properties": {"norad_id": 65304, "name": "DRAGON CRS-33", "group": "stations", "lat": -39.99368855856492, "lon": 11.296058154127087, "alt_km": 420.1224260941335, "timestamp": "2025-12-11T07:02:22.498605+00:00", "meta": {"OBJECT_NAME": "DRAGON CRS-33", "OBJECT_ID": "2025-186A", "EPOCH": "2025-12-10T22:17:24.112320", "MEAN_MOTION": 15.49489378, "ECCENTRICITY": 0.00033509, "INCLINATION": 51.6309, "RA_OF_ASC_NODE": 151.4463, "ARG_OF_PERICENTER": 232.8214, "MEAN_ANOMALY": 127.2469, "EPHEMERIS_TYPE": 0, "CLASSIFICATION_TYPE": "U", "NORAD_CAT_ID": 65304, "ELEMENT_SET_NO": 999, "REV_AT_EPOCH": 11, "BSTAR": 0.00026508679, "MEAN_MOTION_DOT": 0.00014434, "MEAN_MOTION_DDOT": 0}, "tle": {"line1": "1 65304U 25186A   25344.92875130  .00014434  00000+0  26509-3 0  9993", "line2": "2 65304  51.6309 151.4463 0003350 232.8214 127.2469 15.49489378   112"}}, "geometry": {"type": "Point", "coordinates": [11.296058154127087, -39.99368855856492]}}, {"type": "Feature", "properties": {"norad_id": 65586, "name": "PROGRESS-MS 32", "group": "stations", "lat": -39.99368893660985, "lon": 11.296058836558359, "alt_km": 420.1224261112993, "timestamp": "2025-12-11T07:02:22.498615+00:00", "meta": {"OBJECT_NAME": "PROGRESS-MS 32", "OBJECT_ID": "2025-204A", "EPOCH": "2025-12-10T22:17:24.112320", "MEAN_MOTION": 15.49489378, "ECCENTRICITY": 0.00033509, "INCLINATION": 51.6309, "RA_OF_ASC_NODE": 151.4463, "ARG_OF_PERICENTER": 232.8214, "MEAN_ANOMALY": 127.2469, "EPHEMERIS_TYPE": 0, "CLASSIFICATION_TYPE": "U", "NORAD_CAT_ID": 65586, "ELEMENT_SET_NO": 999, "REV_AT_EPOCH": 27, "BSTAR": 0.00026508679, "MEAN_MOTION_DOT": 0.00014434, "MEAN_MOTION_DDOT": 0}, "tle": {"line1": "1 65586U 25204A   25344.92875130  .00014434  00000+0  26509-3 0  9996", "line2": "2 65586  51.6309 151.4463 0003350 232.8214 127.2469 15.49489378   271"}}, "geometry": {"type": "Point", "coordinates": [11.296058836558359, -39.99368893660985]}}, {"type": "Feature", "properties": {"norad_id": 65616, "name": "CYGNUS NG-23", "group": "stations", "lat": -39.99368939026404, "lon": 11.296059655476439, "alt_km": 420.12242613189574, "timestamp": "2025-12-11T07:02:22.498627+00:00", "meta": {"OBJECT_NAME": "CYGNUS NG-23", "OBJECT_ID": "2025-208A", "EPOCH": "2025-12-10T22:17:24.112320", "MEAN_MOTION": 15.49489378, "ECCENTRICITY": 0.00033509, "INCLINATION": 51.6309, "RA_OF_ASC_NODE": 151.4463, "ARG_OF_PERICENTER": 232.8214, "MEAN_ANOMALY": 127.2469, "EPHEMERIS_TYPE": 0, "CLASSIFICATION_TYPE": "U", "NORAD_CAT_ID": 65616, "ELEMENT_SET_NO": 999, "REV_AT_EPOCH": 22, "BSTAR": 0.00026508679, "MEAN_MOTION_DOT": 0.00014434, "MEAN_MOTION_DDOT": 0}, "tle": {"line1": "1 65616U 25208A   25344.92875130  .00014434  00000+0  26509-3 0  9994", "line2": "2 65616  51.6309 151.4463 0003350 232.8214 127.2469 15.49489378   220"}}, "geometry": {"type": "Point", "coordinates": [11.296059655476439, -39.99368939026404]}}, {"type": "Feature", "properties": {"norad_id": 65729, "name": "DRAGONFLY", "group": "stations", "lat": 50.90857339790924, "lon": -114.10296746008504, "alt_km": 352.6745698014238, "timestamp": "2025-12-11T07:02:22.498638+00:00", "meta": {"OBJECT_NAME": "DRAGONFLY", "OBJECT_ID": "1998-067XH", "EPOCH": "2025-12-10T19:56:18.630816", "MEAN_MOTION": 15.71044104, "ECCENTRICITY": 0.00065809, "INCLINATION": 51.6249, "RA_OF_ASC_NODE": 145.5341, "ARG_OF_PERICENTER": 265.1045, "MEAN_ANOMALY": 94.9201, "EPHEMERIS_TYPE": 0, "CLASSIFICATION_TYPE": "U", "NORAD_CAT_ID": 65729, "ELEMENT_SET_NO": 999, "REV_AT_EPOCH": 1286, "BSTAR": 0.0016067518, "MEAN_MOTION_DOT": 0.00211019, "MEAN_MOTION_DDOT": 0}, "tle": {"line1": "1 65729U 98067XH  25344.83077119  .00211019  00000+0  16068-2 0  9999", "line2": "2 65729  51.6249 145.5341 0006580 265.1045  94.9201 15.71044104 12862"}}, "geometry": {"type": "Point", "coordinates": [-114.10296746008504, 50.90857339790924]}}, {"type": "Feature", "properties": {"norad_id": 65731, "name": "1998-067XK", "group": "stations", "lat": 20.365074563254826, "lon": -52.537554602967596, "alt_km": 369.51867381283864, "timestamp": "2025-12-11T07:02:22.498648+00:00", "meta": {"OBJECT_NAME": "1998-067XK", "OBJECT_ID": "1998-067XK", "EPOCH": "2025-12-10T11:59:54.530016", "MEAN_MOTION": 15.65134348, "ECCENTRICITY": 0.00051808, "INCLINATION": 51.6281, "RA_OF_ASC_NODE": 148.5918, "ARG_OF_PERICENTER": 231.8122, "MEAN_ANOMALY": 128.2407, "EPHEMERIS_TYPE": 0, "CLASSIFICATION_TYPE": "U", "NORAD_CAT_ID": 65731, "ELEMENT_SET_NO": 999, "REV_AT_EPOCH": 1279, "BSTAR": 0.0012258975, "MEAN_MOTION_DOT": 0.00124892, "MEAN_MOTION_DDOT": 0}, "tle": {"line1": "1 65731U 98067XK  25344.49993669  .00124892  00000+0  12259-2 0  9991", "line2": "2 65731  51.6281 148.5918 0005180 231.8122 128.2407 15.65134348 12799"}}, "geometry": {"type": "Point", "coordinates": [-52.537554602967596, 20.365074563254826]}}, {"type": "Feature", "properties": {"norad_id": 65732, "name": "RSP-03", "group": "stations", "lat": 46.90831700860293, "lon": -93.99407576779015, "alt_km": 360.3675213340539, "timestamp": "2025-12-11T07:02:22.498676+00:00", "meta": {"OBJECT_NAME": "RSP-03", "OBJECT_ID": "1998-067XL", "EPOCH": "2025-12-10T19:51:35.371008", "MEAN_MOTION": 15.67939317, "ECCENTRICITY": 0.00058921, "INCLINATION": 51.6264, "RA_OF_ASC_NODE": 146.2697, "ARG_OF_PERICENTER": 237.5222, "MEAN_ANOMALY": 122.5205, "EPHEMERIS_TYPE": 0, "CLASSIFICATION_TYPE": "U", "NORAD_CAT_ID": 65732, "ELEMENT_SET_NO": 999, "REV_AT_EPOCH": 1286, "BSTAR": 0.0014115641, "MEAN_MOTION_DOT": 0.00161929, "MEAN_MOTION_DDOT": 0}, "tle": {"line1": "1 65732U 98067XL  25344.82749272  .00161929  00000+0  14116-2 0  9994", "line2": "2 65732  51.6264 146.2697 0005892 237.5222 122.5205 15.67939317 12866"}}, "geometry": {"type": "Point", "coordinates": [-93.99407576779015, 46.90831700860293]}}, {"type": "Feature", "properties": {"norad_id": 65733, "name": "GHS-01", "group": "stations", "lat": -2.228947472364273, "lon": 140.86613069120102, "alt_km": 348.4878625379688, "timestamp": "2025-12-11T07:02:22.498689+00:00", "meta": {"OBJECT_NAME": "GHS-01", "OBJECT_ID": "1998-067XM", "EPOCH": "2025-12-10T20:23:03.748416", "MEAN_MOTION": 15.73741766, "ECCENTRICITY": 0.00069893, "INCLINATION": 51.6283, "RA_OF_ASC_NODE": 144.9143, "ARG_OF_PERICENTER": 267.0937, "MEAN_ANOMALY": 92.9262, "EPHEMERIS_TYPE": 0, "CLASSIFICATION_TYPE": "U", "NORAD_CAT_ID": 65733, "ELEMENT_SET_NO": 999, "REV_AT_EPOCH": 1288, "BSTAR": 0.0017131141, "MEAN_MOTION_DOT": 0.00253707, "MEAN_MOTION_DDOT": 0}, "tle": {"line1": "1 65733U 98067XM  25344.84934894  .00253707  00000+0  17131-2 0  9999", "line2": "2 65733  51.6283 144.9143 0006989 267.0937  92.9262 15.73741766 12889"}}, "geometry": {"type": "Point", "coordinates": [140.86613069120102, -2.228947472364273]}}, {"type": "Feature", "properties": {"norad_id": 65941, "name": "YOTSUBA-KULOVER", "group": "stations", "lat": -38.69143363922275, "lon": 107.85527279512873, "alt_km": 393.86953215777976, "timestamp": "2025-12-11T07:02:22.498702+00:00", "meta": {"OBJECT_NAME": "YOTSUBA-KULOVER", "OBJECT_ID": "1998-067XN", "EPOCH": "2025-12-10T11:16:03.070272", "MEAN_MOTION": 15.59021065, "ECCENTRICITY": 0.00015507, "INCLINATION": 51.6286, "RA_OF_ASC_NODE": 151.3857, "ARG_OF_PERICENTER": 232.2961, "MEAN_ANOMALY": 127.7891, "EPHEMERIS_TYPE": 0, "CLASSIFICATION_TYPE": "U", "NORAD_CAT_ID": 65941, "ELEMENT_SET_NO": 999, "REV_AT_EPOCH": 950, "BSTAR": 0.0011321165, "MEAN_MOTION_DOT": 0.00090413, "MEAN_MOTION_DDOT": 0}, "tle": {"line1": "1 65941U 98067XN  25344.46947998  .00090413  00000+0  11321-2 0  9995", "line2": "2 65941  51.6286 151.3857 0001550 232.2961 127.7891 15.59021065  9504"}}, "geometry": {"type": "Point", "coordinates": [107.85527279512873, -38.69143363922275]}}, {"type": "Feature", "properties": {"norad_id": 65942, "name": "BOTAN", "group": "stations", "lat": -50.11756361578683, "lon": 38.08391487441256, "alt_km": 383.3151855130109, "timestamp": "2025-12-11T07:02:22.498713+00:00", "meta": {"OBJECT_NAME": "BOTAN", "OBJECT_ID": "1998-067XP", "EPOCH": "2025-12-10T11:31:01.401312", "MEAN_MOTION": 15.62212709, "ECCENTRICITY": 0.00033822, "INCLINATION": 51.6281, "RA_OF_ASC_NODE": 150.7055, "ARG_OF_PERICENTER": 220.3642, "MEAN_ANOMALY": 139.7102, "EPHEMERIS_TYPE": 0, "CLASSIFICATION_TYPE": "U", "NORAD_CAT_ID": 65942, "ELEMENT_SET_NO": 999, "REV_AT_EPOCH": 951, "BSTAR": 0.0015087728, "MEAN_MOTION_DOT": 0.00137252, "MEAN_MOTION_DDOT": 0}, "tle": {"line1": "1 65942U 98067XP  25344.47987733  .00137252  00000+0  15088-2 0  9995", "line2": "2 65942  51.6281 150.7055 0003382 220.3642 139.7102 15.62212709  9512"}}, "geometry": {"type": "Point", "coordinates": [38.08391487441256, -50.11756361578683]}}, {"type": "Feature", "properties": {"norad_id": 65943, "name": "E-KAGAKU-1", "group": "stations", "lat": -38.60840017412932, "lon": 107.99042145755517, "alt_km": 395.40681884940204, "timestamp": "2025-12-11T07:02:22.498724+00:00", "meta": {"OBJECT_NAME": "E-KAGAKU-1", "OBJECT_ID": "1998-067XQ", "EPOCH": "2025-12-10T06:39:08.237952", "MEAN_MOTION": 15.5900432, "ECCENTRICITY": 0.00052507, "INCLINATION": 51.6298, "RA_OF_ASC_NODE": 152.3458, "ARG_OF_PERICENTER": 191.2269, "MEAN_ANOMALY": 168.8608, "EPHEMERIS_TYPE": 0, "CLASSIFICATION_TYPE": "U", "NORAD_CAT_ID": 65943, "ELEMENT_SET_NO": 999, "REV_AT_EPOCH": 947, "BSTAR": 0.0012588803, "MEAN_MOTION_DOT": 0.00100705, "MEAN_MOTION_DDOT": 0}, "tle": {"line1": "1 65943U 98067XQ  25344.27717868  .00100705  00000+0  12589-2 0  9990", "line2": "2 65943  51.6298 152.3458 0005250 191.2269 168.8608 15.59004320  9476"}}, "geometry": {"type": "Point", "coordinates": [107.99042145755517, -38.60840017412932]}}]}